STARLINK-2635           
1 48355U 21038C   26068.18266529 -.00004038  00000+0 -12431-3 0  9990
2 48355  53.1597   0.4872 0001105 106.6604 253.4518 15.30190803267001
YAOGAN-36 04C           
1 54750U 22171E   26068.78871400  .00016196  00000+0  54592-3 0  9991
2 54750  34.9797  96.6578 0006685 275.3761  84.6192 15.29852307180246
